#aV2013  9 13  0  0  0.00000000     288 DD+AD WGS84 FIT  NGA
## 1757 432000.00000000   300.00000000 56548 0.0000000000000
+   31     1  2  3  4  5  6  7  8  9 10 11 12 13 14 15 16 17
+         18 19 20 21 22 23 24 25 26 27 28 29 31 32  0  0  0
+          0  0  0  0  0  0  0  0  0  0  0  0  0  0  0  0  0
+          0  0  0  0  0  0  0  0  0  0  0  0  0  0  0  0  0
+          0  0  0  0  0  0  0  0  0  0  0  0  0  0  0  0  0
++         2  2  2  2  2  2  2  2  2  2  2  2  2  2  2  2  2
++         2  2  2  2  2  2  2  2  2  2  2  2  2  2  2  0  0
++         0  0  0  0  0  0  0  0  0  0  0  0  0  0  0  0  0
++         0  0  0  0  0  0  0  0  0  0  0  0  0  0  0  0  0
++         0  0  0  0  0  0  0  0  0  0  0  0  0  0  0  0  0
%c cc cc ccc ccc cccc cccc cccc cccc ccccc ccccc ccccc ccccc
%c cc cc ccc ccc cccc cccc cccc cccc ccccc ccccc ccccc ccccc
%f  0.0000000  0.000000000  0.00000000000  0.000000000000000
%f  0.0000000  0.000000000  0.00000000000  0.000000000000000
%i    0    0    0    0      0      0      0      0         0
%i    0    0    0    0      0      0      0      0         0
/*      NGA, ST. LOUIS,MO.                                  
/*   EPHEMERIS COMPUTED FROM  1 DAYS OF DATA
/*   EPOCHA SMOOTHER  
/* CCCCCCCCCCCCCCCCCCCCCCCCCCCCCCCCCCCCCCCCCCCCCCCCCCCCCCCCC
*  2013  9 13 23 20  0.00000000                                                 
P  1   8024.113948  13890.656484 -21212.451550     74.439332                    
V  1 -26540.628203   4127.419069  -7243.610603      0.041368                    
P  2  16579.168556 -13918.033698  15272.861520    451.193844                    
V  2  19448.328910   -300.628710 -22214.542111      0.017834                    
P  3  -7950.881824  25076.307850   2270.169744    259.133742                    
V  3  -2843.319829  -4361.160437  31127.840730      0.050505                    
P  4  25485.026911  -6635.740123   4120.558623      0.599117                    
V  4   5973.523310   2465.359500 -30498.037089      0.006616                    
P  5   5374.224070 -16506.820495  20033.316954   -399.634735                    
V  5  16711.967828  19414.164551  11646.463845      0.000885                    
P  6 -13501.835134  21061.171189   8389.324672     52.393647                    
V  6    145.078200 -11248.099922  29055.042932      0.190660                    
P  7  22129.892007   6649.788463  13436.152363    258.322852                    
V  7 -16524.292321   3522.155504  25266.567232      0.042153                    
P  8  26692.692902   1476.603912   3096.738328      8.442059                    
V  8  -3671.556714   1157.941255  31839.314843      0.002642                    
P  9  26364.932678  -1738.765389   2765.733042    268.262574                    
V  9  -3839.658307   2555.636166  31923.510483      0.027457                    
P 10  17753.298177     17.748739  19572.043622    -94.370344                    
V 10  14290.469980  21103.342140 -12366.088270     -0.014155                    
P 11    911.284125  17672.012545 -20227.160051   -419.464825                    
V 11 -23253.696533   9413.593884   7605.286687     -0.034339                    
P 12  -9353.634181 -23280.074161  -9078.733590    156.196163                    
V 12   8020.942682   8234.315898 -29332.968508      0.021991                    
P 13  10093.500821  11658.609213  21475.364342     80.238282                    
V 13 -13476.930872  24026.054861  -6806.571136     -0.037608                    
P 14 -17645.423987   8409.191931 -17694.055860    215.834717                    
V 14   8797.718599 -21232.940946 -18784.154529     -0.008800                    
P 15    904.607088 -24267.624295 -10464.890317   -136.959300                    
V 15   7733.124230 -11394.304592  27424.869638     -0.018588                    
P 16  -5713.077186  15661.272699  20557.954867   -246.767592                    
V 16 -15669.598332 -21017.309989  11962.748372      0.007838                    
P 17  17286.048288  -6691.896036 -18707.039465    -21.050641                    
V 17  -8729.595770  22720.542222 -16236.586490     -0.037839                    
P 18 -20169.892888 -14633.770634  -9238.959242    273.956343                    
V 18  -4911.745991 -11735.120193  27685.651458      0.020163                    
P 19  -6488.778770  24307.958635  -7917.309668   -403.948799                    
V 19  -7183.134087   7544.697970  29891.862402     -0.028000                    
P 20  14075.802445  22033.657199  -5073.751455    122.251809                    
V 20  -6858.450008  -2317.939419 -30063.834096      0.025950                    
P 21 -24149.413100  -4983.888086  11087.770577   -318.543443                    
V 21  12618.353421  -4427.860014  26421.294154     -0.018984                    
P 22 -19331.309932  -3012.700925 -17823.606960    184.711696                    
V 22 -12491.893865 -19556.303737  16518.700992      0.018433                    
P 23   4246.618163  20163.843525  16617.465876     48.447977                    
V 23 -10230.158819  18594.952667 -20458.009802     -0.034604                    
P 24  -3428.812968 -14911.365004 -21718.535523    -13.692254                    
V 24  27267.660760  -4054.413865  -1473.268523     -0.006857                    
P 25 -17986.085191 -19322.343009   3324.327519    146.948518                    
V 25   -825.484992  -4784.544583 -31611.345689      0.041872                    
P 26  12789.090365 -23022.802681    911.437806    188.779250                    
V 26   1387.394115   2922.710620  32313.387089      0.182925                    
P 27 -12540.995813  23018.682757   4229.976933    -36.192238                    
V 27   -550.631600  -6038.372392  31155.227570     -0.045663                    
P 28  18776.334474   8052.976071 -16480.182809    292.331460                    
V 28  11198.878413  18915.895818  21087.531915      0.030795                    
P 29  -8766.253821 -14557.068995  20461.836205    470.439117                    
V 29  11805.870150 -23031.120736 -11310.305255      0.031230                    
P 31 -24995.009697   7043.473507   6421.155927    325.793961                    
V 31  -8005.734669   -992.216720 -30616.863079      0.008728                    
P 32   4680.053862  23362.547212 -12162.152218   -548.924388                    
V 32 -10293.937955 -11743.576663 -25748.196980      0.026939                    
EOF
